STARLINK-31406          
1 59017U 24036V   26068.39466612 -.00002258  00000+0 -64127-4 0  9998
2 59017  53.1595  66.3225 0001213  92.8597 267.2543 15.30195857115463
FLOCK 4G-5              
1 62663U 25009BG  26068.45638436  .00011278  00000+0  40688-3 0  9997
2 62663  97.4058 151.2478 0002094 314.5072  45.5996 15.28679529 63699
